GLOBALSTAR M024         
1 25883U 99043A   25151.97697914 -.00000048  00000+0  58649-3 0  9994
2 25883  52.0044  57.1963 0002011  65.4365 306.9387 11.10168478113061
GLOBALSTAR M027         
1 25884U 99043B   25151.66068788 -.00000056  00000+0  27089-3 0  9995
2 25884  52.0178 135.4249 0021726 324.7963  35.1394 11.04372111139416
GLOBALSTAR M054         
1 25885U 99043C   25151.61939819  .00000105  00000+0  44986-2 0  9991
2 25885  52.0145 265.6001 0006437 145.8100 227.1853 11.39219310117496
GLOBALSTAR M053         
1 25886U 99043D   25151.41419891 -.00000059  00000+0  27825-3 0  9996
2 25886  51.9964 212.2547 0002846  57.5138  28.7775 11.27665556117556
GLOBALSTAR M058         
1 25907U 99049A   25151.97369602 -.00000087  00000+0 -37798-4 0  9994
2 25907  51.9905 152.4688 0001981 238.5211 121.5430 11.93200035539602
GLOBALSTAR M050         
1 25908U 99049B   25151.31618910 -.00000069  00000+0  22179-3 0  9997
2 25908  51.9955 163.1612 0009109 356.7935  16.7659 12.07453913146153
GLOBALSTAR M033         
1 25909U 99049C   25151.96816832 -.00000027  00000+0  62015-3 0  9999
2 25909  51.9935  34.3221 0012928 228.3884 131.5857 12.20292952533769
GLOBALSTAR M055         
1 25910U 99049D   25151.91550837 -.00000073  00000+0  18317-3 0  9993
2 25910  52.0039  46.0107 0007616  94.7939 265.3782 12.29427983166280
